AMC-1 (GE-1)            
1 24315U 96054A   22323.60197125  .00000085  00000+0  00000+0 0  9993
2 24315   5.9842  71.8068 0003446 169.1758 263.4597  1.00273141 33235
AMC-3 (GE-3)            
1 24936U 97050A   22324.24918709 -.00000238  00000+0  00000+0 0  9990
2 24936   4.9233  77.9902 0003183 177.8381 181.1487  1.00270809 92368
ASTRA 1G                
1 25071U 97076A   22323.55001692  .00000136  00000+0  00000+0 0  9992
2 25071   6.5972  67.0716 0003640 174.9264  34.0148  1.00274922 91444
ASTRA 2A                
1 25462U 98050A   22324.05969053  .00000091  00000+0  00000+0 0  9999
2 25462   3.7899  83.8666 0003111 154.4382 259.4682  1.00272246 88654
AMC-4 (GE-4)            
1 25954U 99060A   22324.02142513  .00000109  00000+0  00000+0 0  9998
2 25954   1.9093  90.0086 0002704 162.3634  39.4896  1.00271742 84397
NSS-11 (AAP-1)          
1 26554U 00059A   22324.44208312  .00000047  00000+0  00000+0 0  9992
2 26554   0.0243  25.9553 0002128 214.8730 153.8001  1.00271645 81092
AMC-6 (GE-6)            
1 26580U 00067A   22323.73371209  .00000125  00000+0  00000+0 0  9994
2 26580   0.0158 315.9910 0002916 292.9181 294.9897  1.00272514 80823
ASTRA 2D                
1 26638U 00081A   22323.98124209  .00000149  00000+0  00000+0 0  9993
2 26638   7.6211  59.2337 0001879 201.9370 174.7360  1.00270559 80308
AMC-8 (GE-8)            
1 26639U 00081B   22324.02142513  .00000110  00000+0  00000+0 0  9996
2 26639   2.8365  86.8702 0000980  63.8748 141.0070  1.00271318 80189
ASTRA 2C                
1 26853U 01025A   22324.32083668 -.00000237  00000+0  00000+0 0  9992
2 26853   4.9477  77.7958 0003018 171.7652 212.8312  1.00271262 78499
ASTRA 3A                
1 27400U 02015B   22321.53334907 -.00000107  00000+0  00000+0 0  9992
2 27400   7.7133  58.1406 0001978 264.0614 197.3431  0.99774689 75603
NSS-7                   
1 27414U 02019A   22324.11608624 -.00000136  00000+0  00000+0 0  9990
2 27414   6.2621  70.0086 0002707 180.3328 190.5670  1.00271825 75476
NSS-6                   
1 27603U 02057A   22323.55100705  .00000129  00000+0  00000+0 0  9997
2 27603   1.9991  89.7953 0003707 156.1517 201.4752  1.00270444 72948
AMC-11 (GE-11)          
1 28252U 04017A   22323.73528108  .00000089  00000+0  00000+0 0  9992
2 28252   0.0261  26.4153 0002715 214.8626 311.1844  1.00272135 67797
AMC-15                  
1 28446U 04041A   22323.59699883 -.00000069  00000+0  00000+0 0  9996
2 28446   0.0233  13.0553 0002607 242.4819 272.9707  1.00272083 66252
NSS-10 (AMC-12)         
1 28526U 05003A   22323.82567111 -.00000228  00000+0  00000+0 0  9995
2 28526   3.1678  85.6483 0002923 147.0267  85.9741  1.00271067 40065
ASTRA 1KR               
1 29055U 06012A   22324.37132900  .00000142  00000+0  00000+0 0  9993
2 29055   0.0191 282.8818 0005245 310.4776 338.9310  1.00269061 60665
AMC-18                  
1 29644U 06054B   22324.39048147 -.00000194  00000+0  00000+0 0  9992
2 29644   0.0364  88.6583 0002400 150.6150 237.7184  1.00271741 58459
ASTRA 1L                
1 31306U 07016A   22323.55001692  .00000140  00000+0  00000+0 0  9990
2 31306   0.0452 323.2122 0004850 303.3939   9.1881  1.00269376 56943
ASTRA 4A (SIRIUS 4)     
1 32299U 07057A   22324.12105464  .00000054  00000+0  00000+0 0  9997
2 32299   0.0309  48.9731 0002828 192.0709 226.5011  1.00272359 54879
AMC-21                  
1 33275U 08038B   22323.60815097  .00000056  00000+0  00000+0 0  9996
2 33275   0.0514  87.1608 0002599 159.8695 265.6415  1.00271605 52402
ASTRA 1M                
1 33436U 08057A   22324.12410784  .00000141  00000+0  00000+0 0  9993
2 33436   0.0808  97.2123 0003401 102.3570 283.4617  1.00273298 51398
CIEL-2                  
1 33453U 08063A   22324.19354963  .00000079  00000+0  00000+0 0  9992
2 33453   0.0041 122.9340 0002948 120.0872 117.0276  1.00270914 51047
NSS-9                   
1 33749U 09008A   22324.08479404  .00000093  00000+0  00000+0 0  9992
2 33749   0.0277  31.4484 0002113 207.4732  33.7707  1.00272194 50479
SES-7 (PROTOSTAR 2)     
1 34941U 09027A   22324.46160563 -.00000323  00000+0  00000+0 0  9990
2 34941   0.0761  90.5326 0001890 162.0352  81.3529  1.00271034 49536
NSS-12                  
1 36032U 09058A   22324.41837426  .00000093  00000+0  00000+0 0  9994
2 36032   0.0569  90.6898 0002683 157.0321  19.3274  1.00271247 47825
SES-1                   
1 36516U 10016A   22323.52604656 -.00000095  00000+0  00000+0 0  9998
2 36516   0.0452  94.2246 0002524 146.7231 266.0025  1.00271974 46044
ASTRA 3B                
1 36581U 10021A   22324.37115539  .00000159  00000+0  00000+0 0  9997
2 36581   0.0445 356.9006 0003919 240.1072 339.5116  1.00270640 45563
SES-3                   
1 37748U 11035A   22323.59726032 -.00000082  00000+0  00000+0 0  9994
2 37748   0.0436  76.8837 0002788 169.4934 284.2701  1.00271905 41503
ASTRA 1N                
1 37775U 11041A   22324.19566782  .00000142  00000+0  00000+0 0  9998
2 37775   0.0911  65.8596 0001152 264.2009 178.8299  1.00273716 41313
SES-2                   
1 37809U 11049A   22323.60057260 -.00000176  00000+0  00000+0 0  9993
2 37809   0.0218  25.2220 0002594 217.3894 305.2385  1.00272793 40873
QUETZSAT 1              
1 37826U 11054A   22324.11021795 -.00000221  00000+0  00000+0 0  9990
2 37826   0.0512  89.9134 0002710 141.8808 150.0261  1.00271963 41010
SES-4                   
1 38087U 12007A   22324.33086065 -.00000146  00000+0  00000+0 0  9990
2 38087   0.0164 342.8845 0002432 265.3507 268.2248  1.00271871 39407
SES-5                   
1 38652U 12036A   22324.23729806  .00000055  00000+0  00000+0 0  9994
2 38652   0.0581 293.7031 0001979 303.0369 272.9271  1.00271044 37981
ASTRA 2F                
1 38778U 12051A   22323.83874584  .00000170  00000+0  00000+0 0  9997
2 38778   0.0650 249.2098 0004442 340.6888 159.1173  1.00269900 28038
SES-6                   
1 39172U 13026A   22324.11299314 -.00000240  00000+0  00000+0 0  9992
2 39172   0.0184 344.6772 0002256 258.7221 175.9277  1.00271384 34632
O3B FM5                 
1 39188U 13031A   22324.19195507 -.00000010  00000+0  00000+0 0  9997
2 39188   0.0659  11.8519 0002771 232.3452 115.7817  5.00115367171843
O3B FM4                 
1 39189U 13031B   22323.64824533 -.00000011  00000+0  00000+0 0  9996
2 39189   0.0442 353.1580 0002720 250.2669 116.5545  5.00115875171747
O3B FM2                 
1 39190U 13031C   22323.73971685 -.00000011  00000+0  00000+0 0  9999
2 39190   0.0420 346.9630 0002726 255.1902 117.8265  5.00115124171808
O3B PFM                 
1 39191U 13031D   22323.56608208 -.00000011  00000+0  00000+0 0  9999
2 39191   0.0575   8.7196 0002727 230.5605 120.7002  5.00115760171345
ASTRA 2E                
1 39285U 13056A   22324.30188469  .00000172  00000+0  00000+0 0  9992
2 39285   0.0663 332.1747 0002153 273.4081 310.9220  1.00268684 33500
SES-8                   
1 39460U 13071A   22323.74210477 -.00000250  00000+0  00000+0 0  9994
2 39460   0.0143 258.4515 0000833 332.5128 189.9775  1.00271608 31331
ASTRA 5B                
1 39617U 14011B   22324.10674361  .00000176  00000+0  00000+0 0  9996
2 39617   0.0614 308.1713 0004019 278.0845 262.8150  1.00271812 31785
O3B FM3                 
1 40079U 14038A   22322.42154820 -.00000013  00000+0  00000+0 0  9996
2 40079   0.0502 359.4774 0004623 214.1293 146.3706  5.00115381147660
O3B FM7                 
1 40080U 14038B   22323.76684998 -.00000011  00000+0  00000+0 0  9998
2 40080   0.0503 354.3101 0002529 287.0857  78.5830  5.00115525152568
O3B FM6                 
1 40081U 14038C   22323.59335069 -.00000011  00000+0  00000+0 0  9992
2 40081   0.0490 359.4679 0002789 240.1142 120.3975  5.00115295152510
O3B FM8                 
1 40082U 14038D   22323.84712521 -.00000010  00000+0  00000+0 0  9992
2 40082   0.0460 357.8450 0002667 239.3369 122.7997  5.00115695152821
O3B FM10                
1 40348U 14083A   22323.67335757 -.00000011  00000+0  00000+0 0  9991
2 40348   0.0524   9.0512 0002701 230.1403 120.7891  5.00115134144582
O3B FM11                
1 40349U 14083B   22322.68732999 -.00000013  00000+0  00000+0 0  9993
2 40349   0.0561   5.8527 0002858 246.7010 107.4218  5.00115414144557
O3B FM12                
1 40350U 14083C   22323.91389736 -.00000010  00000+0  00000+0 0  9996
2 40350   0.0551   5.5840 0002885 236.0125 118.3817  5.00115281144763
O3B FM9                 
1 40351U 14083D   22322.94122863 -.00000012  00000+0  00000+0 0  9997
2 40351   0.0572   5.4210 0002697 234.2716 120.2877  5.00116079144724
ASTRA 2G                
1 40364U 14089A   22324.36577193  .00000171  00000+0  00000+0 0  9990
2 40364   0.0366 348.8018 0001022  73.2946 157.2038  1.00270156 28932
SES-9                   
1 41380U 16013A   22324.12806017 -.00000324  00000+0  00000+0 0  9993
2 41380   0.0189 294.9357 0000748 225.9241  52.6975  1.00270455 24665
SES-10                  
1 42432U 17017A   22324.46535618 -.00000251  00000+0  00000+0 0  9999
2 42432   0.0111 351.0795 0002744 255.9788 273.0636  1.00271654 20646
SES-15                  
1 42709U 17026A   22323.60312064  .00000080  00000+0  00000+0 0  9998
2 42709   0.0216 350.0647 0000256 250.3955 266.1436  1.00267641 21097
SES-11 (ECHOSTAR 105)   
1 42967U 17063A   22323.59699883 -.00000069  00000+0  00000+0 0  9998
2 42967   0.0231 289.9894 0002727 313.2543 285.3604  1.00272198 18630
SES-14                  
1 43175U 18012B   22324.11299314 -.00000257  00000+0  00000+0 0  9998
2 43175   0.0152 306.2137 0000943 287.8084 178.2935  1.00270844 17969
O3B FM15                
1 43231U 18024A   22323.40695312 -.00000011  00000+0  00000+0 0  9991
2 43231   0.0502  12.1140 0003046 228.2845 119.5783  5.00116107 85878
O3B FM16                
1 43232U 18024B   22323.66025285 -.00000011  00000+0  00000+0 0  9996
2 43232   0.0487  16.6472 0003034 224.5848 118.7448  5.00115928 85630
O3B FM14                
1 43233U 18024C   22323.69996329 -.00000011  00000+0  00000+0 0  9996
2 43233   0.0476  17.9359 0002935 226.4879 115.5530  5.00115347 85644
O3B FM13                
1 43234U 18024D   22323.35371198 -.00000011  00000+0  00000+0 0  9991
2 43234   0.0600  11.1711 0003861 230.8689 117.9280  5.00115311 85749
SES-12                  
1 43488U 18049A   22324.49769436 -.00000247  00000+0  00000+0 0  9992
2 43488   0.0533  83.6277 0002425 176.6877  73.3698  1.00270234 16336
O3B FM20                
1 44112U 19020A   22323.72665648 -.00000011  00000+0  00000+0 0  9991
2 44112   0.0518   8.6989 0003313 236.9306 114.3432  5.00115465 66262
O3B FM19                
1 44113U 19020B   22321.35481454 -.00000016  00000+0  00000+0 0  9995
2 44113   0.0750  12.4113 0002176 254.2659  93.3043  5.00115220 66019
O3B FM17                
1 44114U 19020C   22323.83394796 -.00000010  00000+0  00000+0 0  9997
2 44114   0.0322   8.7423 0003167 231.6382 119.5952  5.00115636 66213
O3B FM18                
1 44115U 19020D   22323.98033531 -.00000010  00000+0  00000+0 0  9991
2 44115   0.0522   8.6861 0002956 231.0249 120.2671  5.00115762 66343
SES-17                  
1 49332U 21095A   22324.46535618 -.00000250  00000+0  00000+0 0  9995
2 49332   0.0138 332.8180 0000841 259.9929 287.1133  1.00269146  4758
SES-22                  
1 52933U 22071A   22323.73449657  .00000108  00000+0  00000+0 0  9998
2 52933   0.0109 309.2634 0002533 294.6376 304.2960  1.00273398  1469
